{
  "norad_id": 58735,
  "name": "STARLINK-31157",
  "history": [
    {
      "epoch": "2026-03-28T13:36:53.728128Z",
      "apogee_km": 483.8640540203014,
      "perigee_km": 482.2763706713631,
      "latitude_deg": 4.6469210729542464e-05,
      "longitude_deg": 82.67540147464284,
      "height_km": 482.79628859434007,
      "semi_major_axis_km": 6861.207212345832,
      "eccentricity": 0.0001157,
      "inclination_deg": 43.0032,
      "raan_deg": 112.8851,
      "arg_perigee_deg": 273.6674,
      "mean_anomaly_deg": 86.4046,
      "mean_motion_rev_day": 15.27572948
    },
    {
      "epoch": "2026-03-30T12:41:33.925632Z",
      "apogee_km": 484.9770681122782,
      "perigee_km": 481.1283523562188,
      "latitude_deg": -2.653330518597192e-05,
      "longitude_deg": 83.49651709363124,
      "height_km": 482.42449759495685,
      "semi_major_axis_km": 6861.189710234248,
      "eccentricity": 0.00028047,
      "inclination_deg": 43.0013,
      "raan_deg": 101.8072,
      "arg_perigee_deg": 282.183,
      "mean_anomaly_deg": 77.8707,
      "mean_motion_rev_day": 15.27578793
    },
    {
      "epoch": "2026-03-31T16:56:24.180288Z",
      "apogee_km": 484.00800317848734,
      "perigee_km": 482.12528889801433,
      "latitude_deg": -2.8666536521280185e-05,
      "longitude_deg": 11.979946853991308,
      "height_km": 482.8575944818589,
      "semi_major_axis_km": 6861.203646038251,
      "eccentricity": 0.0001372,
      "inclination_deg": 43.0015,
      "raan_deg": 95.1601,
      "arg_perigee_deg": 269.1417,
      "mean_anomaly_deg": 90.9277,
      "mean_motion_rev_day": 15.27574139
    },
    {
      "epoch": "2026-04-01T11:46:17.041728Z",
      "apogee_km": 483.9476877732959,
      "perigee_km": 482.1459409036506,
      "latitude_deg": -1.0284770086953593e-05,
      "longitude_deg": 84.3067353930646,
      "height_km": 483.0017134484465,
      "semi_major_axis_km": 6861.183814338473,
      "eccentricity": 0.0001313,
      "inclination_deg": 43.0001,
      "raan_deg": 90.7305,
      "arg_perigee_deg": 258.5844,
      "mean_anomaly_deg": 101.486,
      "mean_motion_rev_day": 15.27580762
    },
    {
      "epoch": "2026-04-02T06:36:09.371808Z",
      "apogee_km": 483.93110725980114,
      "perigee_km": 482.1439085239854,
      "latitude_deg": 3.927345571651036e-05,
      "longitude_deg": 156.6311770390091,
      "height_km": 482.81286507731807,
      "semi_major_axis_km": 6861.174507891893,
      "eccentricity": 0.00013024,
      "inclination_deg": 43.0047,
      "raan_deg": 86.2963,
      "arg_perigee_deg": 270.1143,
      "mean_anomaly_deg": 89.956,
      "mean_motion_rev_day": 15.2758387
    },
    {
      "epoch": "2026-04-03T15:33:25.871040Z",
      "apogee_km": 484.15427205917695,
      "perigee_km": 481.8722534817798,
      "latitude_deg": 4.156216101245888e-05,
      "longitude_deg": 13.204636498919088,
      "height_km": 482.8518014129467,
      "semi_major_axis_km": 6861.150262770478,
      "eccentricity": 0.0001663,
      "inclination_deg": 43.0047,
      "raan_deg": 78.5419,
      "arg_perigee_deg": 266.9296,
      "mean_anomaly_deg": 93.1366,
      "mean_motion_rev_day": 15.27591967
    },
    {
      "epoch": "2026-04-04T15:05:47.102496Z",
      "apogee_km": 483.90541770850723,
      "perigee_km": 482.20247011622723,
      "latitude_deg": -1.1085504774755978e-05,
      "longitude_deg": 13.61199347285753,
      "height_km": 482.9158336900677,
      "semi_major_axis_km": 6861.1909439123665,
      "eccentricity": 0.0001241,
      "inclination_deg": 43.003,
      "raan_deg": 73.0045,
      "arg_perigee_deg": 264.2706,
      "mean_anomaly_deg": 95.8004,
      "mean_motion_rev_day": 15.27578381
    },
    {
      "epoch": "2026-04-05T08:20:10.095648Z",
      "apogee_km": 484.52758562690633,
      "perigee_km": 466.00913606946597,
      "latitude_deg": 9.449886815599911e-06,
      "longitude_deg": 110.23969944041157,
      "height_km": 468.5152622152525,
      "semi_major_axis_km": 6853.405360848185,
      "eccentricity": 0.00135104,
      "inclination_deg": 43.002,
      "raan_deg": 68.936,
      "arg_perigee_deg": 314.8743,
      "mean_anomaly_deg": 45.1012,
      "mean_motion_rev_day": 15.30182152
    },
    {
      "epoch": "2026-04-05T20:00:03.000384Z",
      "apogee_km": 484.2549710971816,
      "perigee_km": 482.0044756119205,
      "latitude_deg": 19.501452773725855,
      "longitude_deg": 89.86861857502528,
      "height_km": 482.701814710165,
      "semi_major_axis_km": 6861.266723354551,
      "eccentricity": 0.000164,
      "inclination_deg": 43.0021,
      "raan_deg": 66.2026,
      "arg_perigee_deg": 254.4395,
      "mean_anomaly_deg": 256.3672,
      "mean_motion_rev_day": 15.27553074
    },
    {
      "epoch": "2026-04-06T00:00:02.000160Z",
      "apogee_km": 484.0834819277352,
      "perigee_km": 481.99301905241555,
      "latitude_deg": -8.006292662596836,
      "longitude_deg": -137.66906179745027,
      "height_km": 484.28179040482075,
      "semi_major_axis_km": 6861.175250490075,
      "eccentricity": 0.00015234,
      "inclination_deg": 43.0022,
      "raan_deg": 65.263,
      "arg_perigee_deg": 253.8334,
      "mean_anomaly_deg": 94.5186,
      "mean_motion_rev_day": 15.27583622
    },
    {
      "epoch": "2026-04-06T14:10:29.752032Z",
      "apogee_km": 484.1164372699386,
      "perigee_km": 481.96353715489204,
      "latitude_deg": -3.3169053055637356e-06,
      "longitude_deg": 14.424145889233774,
      "height_km": 483.01833060227176,
      "semi_major_axis_km": 6861.176987212415,
      "eccentricity": 0.00015689,
      "inclination_deg": 43.0013,
      "raan_deg": 61.9278,
      "arg_perigee_deg": 259.2161,
      "mean_anomaly_deg": 100.8514,
      "mean_motion_rev_day": 15.27583042
    },
    {
      "epoch": "2026-04-08T06:58:32.418336Z",
      "apogee_km": 483.9759150137015,
      "perigee_km": 482.0137685295913,
      "latitude_deg": 4.4315686080751806e-05,
      "longitude_deg": 111.13465536216276,
      "height_km": 482.9068813127675,
      "semi_major_axis_km": 6861.131841771646,
      "eccentricity": 0.00014299,
      "inclination_deg": 43.001,
      "raan_deg": 52.325,
      "arg_perigee_deg": 262.0767,
      "mean_anomaly_deg": 97.9923,
      "mean_motion_rev_day": 15.27598119
    },
    {
      "epoch": "2026-04-09T12:47:31.511040Z",
      "apogee_km": 484.2975252300548,
      "perigee_km": 481.81157830701795,
      "latitude_deg": 6.140956095558005e-05,
      "longitude_deg": 15.650333608055606,
      "height_km": 482.80104112290763,
      "semi_major_axis_km": 6861.191551768537,
      "eccentricity": 0.00018116,
      "inclination_deg": 43.0029,
      "raan_deg": 45.3114,
      "arg_perigee_deg": 271.4228,
      "mean_anomaly_deg": 88.6417,
      "mean_motion_rev_day": 15.27578178
    },
    {
      "epoch": "2026-04-10T06:03:13.351104Z",
      "apogee_km": 484.269488209522,
      "perigee_km": 481.63976901010847,
      "latitude_deg": 3.430624108561067e-05,
      "longitude_deg": 111.95395951184109,
      "height_km": 482.9266212512613,
      "semi_major_axis_km": 6861.091628609815,
      "eccentricity": 0.00019164,
      "inclination_deg": 43.0025,
      "raan_deg": 41.2483,
      "arg_perigee_deg": 261.4866,
      "mean_anomaly_deg": 98.5769,
      "mean_motion_rev_day": 15.27611549
    },
    {
      "epoch": "2026-04-11T11:52:13.287072Z",
      "apogee_km": 483.80899000329373,
      "perigee_km": 482.3338301951226,
      "latitude_deg": 1.0364631012102824e-05,
      "longitude_deg": 16.46177197086714,
      "height_km": 482.1101027446991,
      "semi_major_axis_km": 6861.208410099208,
      "eccentricity": 0.0001075,
      "inclination_deg": 43.0009,
      "raan_deg": 34.2304,
      "arg_perigee_deg": 2.512,
      "mean_anomaly_deg": 357.5737,
      "mean_motion_rev_day": 15.27572548
    }
  ]
}